NORAD_CAT_ID,OBJECT_NAME,OBJECT_TYPE,EPOCH,MEAN_MOTION,ECCENTRICITY,INCLINATION,RA_OF_ASC_NODE,ARG_OF_PERICENTER,MEAN_ANOMALY,BSTAR,MEAN_MOTION_DOT,MEAN_MOTION_DDOT,TLE_LINE0,TLE_LINE1,TLE_LINE2,SEMIMAJOR_AXIS,PERIOD,APOGEE,PERIGEE,DECAYED
53638.0,STARLINK-4594,PAYLOAD,2024-05-19 19:41:32,15.08817412,0.000134,53.2175,301.5327,112.2726,247.8409,0.001176,0.00018466,0.0,0 STARLINK-4594,1 53638U 22104BC  24140.82051983  .00018466  00000-0  11760-2 0  9993,2 53638  53.2175 301.5327 0001340 112.2726 247.8409 15.08817412 95746,6917.949,95.439,540.741,538.887,0.0
53638.0,STARLINK-4594,PAYLOAD,2024-05-20 14:46:11,15.08855215,0.0001261,53.2167,297.9639,114.8277,245.2846,0.00193,0.00030574,0.0,0 STARLINK-4594,1 53638U 22104BC  24141.61540546  .00030574  00000-0  19300-2 0  9991,2 53638  53.2167 297.9639 0001261 114.8277 245.2846 15.08855215 96888,6917.834,95.437,540.571,538.827,0.0
53638.0,STARLINK-4594,PAYLOAD,2024-05-21 01:53:52,15.08884245,0.0001164,53.2165,295.8816,115.4547,244.6566,0.002049,0.00032512,0.0,0 STARLINK-4594,1 53638U 22104BC  24142.07907603  .00032512  00000-0  20490-2 0  9999,2 53638  53.2165 295.8816 0001164 115.4547 244.6566 15.08884245 95931,6917.745,95.435,540.415,538.805,0.0
53638.0,STARLINK-4594,PAYLOAD,2024-05-21 09:50:47,15.0885118,0.0001359,53.2165,294.3945,104.4509,255.6634,0.00021862,3.194e-05,0.0,0 STARLINK-4594,1 53638U 22104BC  24142.41027764  .00003194  00000-0  21862-3 0  9997,2 53638  53.2165 294.3945 0001359 104.4509 255.6634 15.08851180 95985,6917.846,95.437,540.651,538.771,0.0
53638.0,STARLINK-4594,PAYLOAD,2024-05-21 14:36:57,15.08849026,0.0001653,53.217,293.5036,70.7746,289.3425,0.0010948,0.00017183,0.0,0 STARLINK-4594,1 53638U 22104BC  24142.60900212  .00017183  00000-0  10948-2 0  9991,2 53638  53.2170 293.5036 0001653  70.7746 289.3425 15.08849026 97034,6917.853,95.437,540.861,538.574,0.0
53638.0,STARLINK-4594,PAYLOAD,2024-05-21 17:47:43,15.08847718,0.0001058,53.2169,292.9084,83.1184,276.9928,0.0012266,0.00019291,0.0,0 STARLINK-4594,1 53638U 22104BC  24142.74148000  .00019291  00000-0  12266-2 0  9992,2 53638  53.2169 292.9084 0001058  83.1184 276.9928 15.08847718 97059,6917.857,95.437,540.454,538.99,0.0
53638.0,STARLINK-4594,PAYLOAD,2024-05-22 09:41:35,15.08853907,0.0001817,53.2166,289.9374,55.1315,304.9848,0.0011264,0.00017691,0.0,0 STARLINK-4594,1 53638U 22104BC  24143.40388230  .00017691  00000-0  11264-2 0  9996,2 53638  53.2166 289.9374 0001817  55.1315 304.9848 15.08853907 96130,6917.838,95.437,540.96,538.446,0.0
53638.0,STARLINK-4594,PAYLOAD,2024-05-23 12:43:09,15.08848961,0.0002067,53.2183,284.8803,6.6423,353.4596,0.00078329,0.00012203,0.0,0 STARLINK-4594,1 53638U 22104BC  24144.52996644  .00012203  00000-0  78329-3 0  9994,2 53638  53.2183 284.8803 0002067   6.6423 353.4596 15.08848961 96301,6917.853,95.437,541.148,538.288,0.0
53638.0,STARLINK-4594,PAYLOAD,2024-05-23 14:18:31,15.08842496,0.0001066,53.2164,284.5792,68.2936,291.817,0.0003478,5.252e-05,0.0,0 STARLINK-4594,1 53638U 22104BC  24144.59620337  .00005252  00000-0  34780-3 0  9993,2 53638  53.2164 284.5792 0001066  68.2936 291.8170 15.08842496 97339,6917.873,95.437,540.475,539.0,0.0
53638.0,STARLINK-4594,PAYLOAD,2024-05-23 19:04:41,15.08842855,0.0001124,53.2168,283.6881,79.9154,280.1965,0.00017004,2.42e-05,0.0,0 STARLINK-4594,1 53638U 22104BC  24144.79492247  .00002420  00000-0  17004-3 0  9996,2 53638  53.2168 283.6881 0001124  79.9154 280.1965 15.08842855 97363,6917.872,95.437,540.514,538.959,0.0
53638.0,STARLINK-4594,PAYLOAD,2024-05-24 14:09:18,15.08842401,0.0001231,53.2175,280.1187,99.7476,260.3656,0.00015178,2.129e-05,0.0,0 STARLINK-4594,1 53638U 22104BC  24145.58980197  .00002129  00000-0  15178-3 0  9996,2 53638  53.2175 280.1187 0001231  99.7476 260.3656 15.08842401 97485,6917.873,95.437,540.59,538.886,0.0
53638.0,STARLINK-4594,PAYLOAD,2024-05-24 18:55:28,15.0884399,0.0001264,53.2172,279.2264,102.7818,257.3316,0.00015612,2.198e-05,0.0,0 STARLINK-4594,1 53638U 22104BC  24145.78852062  .00002198  00000-0  15612-3 0  9996,2 53638  53.2172 279.2264 0001264 102.7818 257.3316 15.08843990 97515,6917.868,95.437,540.608,538.859,0.0
53638.0,STARLINK-4594,PAYLOAD,2024-05-25 12:24:43,15.08824034,0.0001095,53.2171,275.9548,82.0801,278.0315,-0.00013183,-2.384e-05,0.0,0 STARLINK-4594,1 53638U 22104BC  24146.51717154 -.00002384  00000-0 -13183-3 0  9990,2 53638  53.2171 275.9548 0001095  82.0801 278.0315 15.08824034 96602,6917.929,95.439,540.552,539.037,0.0
53638.0,STARLINK-4594,PAYLOAD,2024-05-25 14:00:06,15.08826139,0.0001159,53.2172,275.6574,84.203,275.9094,-9.9093e-05,-1.864e-05,0.0,0 STARLINK-4594,1 53638U 22104BC  24146.58341103 -.00001864  00000-0 -99093-4 0  9991,2 53638  53.2172 275.6574 0001159  84.2030 275.9094 15.08826139 97630,6917.923,95.438,540.59,538.986,0.0
53638.0,STARLINK-4594,PAYLOAD,2024-05-25 15:35:29,15.08831384,0.0001051,53.2171,275.3618,76.6004,283.5105,-2.2111e-05,-6.4e-06,0.0,0 STARLINK-4594,1 53638U 22104BC  24146.64964848 -.00000640  00000-0 -22111-4 0  9993,2 53638  53.2171 275.3618 0001051  76.6004 283.5105 15.08831384 96626,6917.907,95.438,540.499,539.045,0.0
53638.0,STARLINK-4594,PAYLOAD,2024-05-26 12:15:30,15.08839745,0.0001247,53.217,271.4969,99.1293,260.984,0.00011007,1.464e-05,0.0,0 STARLINK-4594,1 53638U 22104BC  24147.51076659  .00001464  00000-0  11007-3 0  9998,2 53638  53.2170 271.4969 0001247  99.1293 260.9840 15.08839745 96756,6917.881,95.438,540.609,538.884,0.0
53638.0,STARLINK-4594,PAYLOAD,2024-05-26 13:50:53,15.08837986,0.0001016,53.2178,271.1999,82.0107,278.1,0.00013218,1.816e-05,0.0,0 STARLINK-4594,1 53638U 22104BC  24147.57700843  .00001816  00000-0  13218-3 0  9990,2 53638  53.2178 271.1999 0001016  82.0107 278.1000 15.08837986 97781,6917.887,95.438,540.454,539.049,0.0
53638.0,STARLINK-4594,PAYLOAD,2024-05-27 00:58:34,15.0886546,0.0001618,53.2204,269.136,153.1872,206.9204,-0.00026952,-4.578e-05,0.0,0 STARLINK-4594,1 53638U 22104BC  24148.04067404 -.00004578  00000-0 -26952-3 0  9991,2 53638  53.2204 269.1360 0001618 153.1872 206.9204 15.08865460 96835,6917.803,95.436,540.787,538.548,0.0
53638.0,STARLINK-4594,PAYLOAD,2024-05-27 13:41:40,15.08834109,0.0001732,53.2204,266.755,119.4492,240.6673,0.00021956,3.207e-05,0.0,0 STARLINK-4594,1 53638U 22104BC  24148.57061047  .00003207  00000-0  21956-3 0  9991,2 53638  53.2204 266.7550 0001732 119.4492 240.6673 15.08834109 97932,6917.898,95.438,540.962,538.565,0.0
53638.0,STARLINK-4594,PAYLOAD,2024-05-27 18:27:49,15.08844489,0.0001199,53.2178,265.8475,82.5057,277.6072,0.00024676,3.642e-05,0.0,0 STARLINK-4594,1 53638U 22104BC  24148.76932576  .00003642  00000-0  24676-3 0  9991,2 53638  53.2178 265.8475 0001199  82.5057 277.6072 15.08844489 96947,6917.867,95.437,540.561,538.902,0.0
53638.0,STARLINK-4594,PAYLOAD,2024-05-28 13:32:27,15.08840992,0.0001279,53.2181,262.2784,88.8477,271.2662,6.5122e-06,-1.84e-06,0.0,0 STARLINK-4594,1 53638U 22104BC  24149.56420649 -.00000184  00000-0  65122-5 0  9995,2 53638  53.2181 262.2784 0001279  88.8477 271.2662 15.08840992 98086,6917.877,95.437,540.627,538.858,0.0
53638.0,STARLINK-4594,PAYLOAD,2024-05-28 15:07:50,15.08841688,0.000124,53.2178,261.981,84.7323,275.3811,1.5045e-05,-4.8e-07,0.0,0 STARLINK-4594,1 53638U 22104BC  24149.63044608 -.00000048  00000-0  15045-4 0  9997,2 53638  53.2178 261.9810 0001240  84.7323 275.3811 15.08841688 97073,6917.875,95.437,540.598,538.882,0.0
53638.0,STARLINK-4594,PAYLOAD,2024-05-29 13:23:14,15.0884268,0.0001146,53.2183,257.8187,90.4675,269.6448,1.9297e-05,1.9e-07,0.0,0 STARLINK-4594,1 53638U 22104BC  24150.55780814  .00000019  00000-0  19297-4 0  9996,2 53638  53.2183 257.8187 0001146  90.4675 269.6448 15.08842680 98233,6917.872,95.437,540.53,538.944,0.0
53638.0,STARLINK-4594,PAYLOAD,2024-05-29 14:58:37,15.08843405,0.0001153,53.2182,257.5213,89.4538,270.6586,2.2194e-05,6.5e-07,0.0,0 STARLINK-4594,1 53638U 22104BC  24150.62404733  .00000065  00000-0  22194-4 0  9998,2 53638  53.2182 257.5213 0001153  89.4538 270.6586 15.08843405 98245,6917.87,95.437,540.533,538.937,0.0
53638.0,STARLINK-4594,PAYLOAD,2024-05-30 13:14:01,15.0884607,0.0001281,53.2179,253.3601,74.0959,286.0175,0.0001235,1.678e-05,0.0,0 STARLINK-4594,1 53638U 22104BC  24151.55140370  .00001678  00000-0  12350-3 0  9998,2 53638  53.2179 253.3601 0001281  74.0959 286.0175 15.08846070 97363,6917.862,95.437,540.613,538.841,0.0
53638.0,STARLINK-4594,PAYLOAD,2024-05-31 13:04:48,15.08843744,0.0001105,53.2185,248.8997,90.6397,269.4721,8.4317e-05,1.054e-05,0.0,0 STARLINK-4594,1 53638U 22104BC  24152.54500349  .00001054  00000-0  84317-4 0  9995,2 53638  53.2185 248.8997 0001105  90.6397 269.4721 15.08843744 98539,6917.869,95.437,540.498,538.97,0.0
53638.0,STARLINK-4594,PAYLOAD,2024-05-31 16:15:34,15.08845019,0.0001095,53.2183,248.3046,92.9715,267.1403,9.0139e-05,1.147e-05,0.0,0 STARLINK-4594,1 53638U 22104BC  24152.67748203  .00001147  00000-0  90139-4 0  9994,2 53638  53.2183 248.3046 0001095  92.9715 267.1403 15.08845019 97532,6917.865,95.437,540.488,538.973,0.0
53638.0,STARLINK-4594,PAYLOAD,2024-06-01 12:55:35,15.08836802,0.0001299,53.2185,244.4386,94.6697,265.4444,-4.0296e-05,-9.29e-06,0.0,0 STARLINK-4594,1 53638U 22104BC  24153.53861013 -.00000929  00000-0 -40296-4 0  9993,2 53638  53.2185 244.4386 0001299  94.6697 265.4444 15.08836802 97662,6917.89,95.438,540.654,538.857,0.0
53638.0,STARLINK-4594,PAYLOAD,2024-06-01 22:27:54,15.08843665,0.0001285,53.2193,242.6548,94.1751,265.9388,3.4419e-05,2.6e-06,0.0,0 STARLINK-4594,1 53638U 22104BC  24153.93604367  .00000260  00000-0  34419-4 0  9990,2 53638  53.2193 242.6548 0001285  94.1751 265.9388 15.08843665 97726,6917.869,95.437,540.623,538.845,0.0
53638.0,STARLINK-4594,PAYLOAD,2024-06-02 12:46:20,15.08868618,0.000118,53.2175,239.9787,99.549,260.5636,0.00026723,3.971e-05,0.0,0 STARLINK-4594,1 53638U 22104BC  24154.53217842  .00003971  00000-0  26723-3 0  9995,2 53638  53.2175 239.9787 0001180  99.5490 260.5636 15.08868618 97815,6917.793,95.436,540.474,538.842,0.0
